{"type": "FeatureCollection", "features": [ {"type": "Feature", "properties": {"norad_id": 34953, "name": "COSMOS 2251 DEB", "group": "cosmos-2251-debris", "lat": -58.78455060765127, "lon": 15.662640563426791, "alt_km": 679.1985358518114, "timestamp": "2025-12-04T07:39:36.527255+00:00", "meta": {"OBJECT_NAME": "COSMOS 2251 DEB", "OBJECT_ID": "1993-036AEG", "EPOCH": "2025-12-03T04:17:18.808224", "MEAN_MOTION": 14.6881213, "ECCENTRICITY": 0.00576151, "INCLINATION": 74.0941, "RA_OF_ASC_NODE": 45.9321, "ARG_OF_PERICENTER": 40.9172, "MEAN_ANOMALY": 348.9233, "EPHEMERIS_TYPE": 0, "CLASSIFICATION_TYPE": "U", "NORAD_CAT_ID": 34953, "ELEMENT_SET_NO": 999, "REV_AT_EPOCH": 87988, "BSTAR": 0.0010926794, "MEAN_MOTION_DOT": 6.516e-05, "MEAN_MOTION_DDOT": 0}, "tle": {"line1": "1 34953U 93036AEG 25337.17868991  .00006516  00000+0  10927-2 0  9992", "line2": "2 34953  74.0941  45.9321 0057615  40.9172 348.9233 14.68812130879888"}}, "geometry": {"type": "Point", "coordinates": [15.662640563426791, -58.78455060765127]}}, {"type": "Feature", "properties": {"norad_id": 34955, "name": "COSMOS 2251 DEB", "group": "cosmos-2251-debris", "lat": -16.239783083814512, "lon": 88.41261023732561, "alt_km": 611.255876375295, "timestamp": "2025-12-04T07:39:36.527264+00:00", "meta": {"OBJECT_NAME": "COSMOS 2251 DEB", "OBJECT_ID": "1993-036AEJ", "EPOCH": "2025-12-03T01:58:24.293568", "MEAN_MOTION": 15.00189355, "ECCENTRICITY": 0.00783052, "INCLINATION": 74.0373, "RA_OF_ASC_NODE": 266.1437, "ARG_OF_PERICENTER": 338.174, "MEAN_ANOMALY": 21.6115, "EPHEMERIS_TYPE": 0, "CLASSIFICATION_TYPE": "U", "NORAD_CAT_ID": 34955, "ELEMENT_SET_NO": 999, "REV_AT_EPOCH": 89889, "BSTAR": 0.0013091752, "MEAN_MOTION_DOT": 0.00017463, "MEAN_MOTION_DDOT": 0}, "tle": {"line1": "1 34955U 93036AEJ 25337.08222562  .00017463  00000+0  13092-2 0  9991", "line2": "2 34955  74.0373 266.1437 0078305 338.1740  21.6115 15.00189355898895"}}, "geometry": {"type": "Point", "coordinates": [88.41261023732561, -16.239783083814512]}}, {"type": "Feature", "properties": {"norad_id": 34962, "name": "COSMOS 2251 DEB", "group": "cosmos-2251-debris", "lat": 0.20671660637453604, "lon": 29.03364421909125, "alt_km": 750.3698783882519, "timestamp": "2025-12-04T07:39:36.527273+00:00", "meta": {"OBJECT_NAME": "COSMOS 2251 DEB", "OBJECT_ID": "1993-036AER", "EPOCH": "2025-12-03T09:15:09.558720", "MEAN_MOTION": 14.4647129, "ECCENTRICITY": 0.00185566, "INCLINATION": 74.0295, "RA_OF_ASC_NODE": 210.8361, "ARG_OF_PERICENTER": 325.0213, "MEAN_ANOMALY": 34.9725, "EPHEMERIS_TYPE": 0, "CLASSIFICATION_TYPE": "U", "NORAD_CAT_ID": 34962, "ELEMENT_SET_NO": 999, "REV_AT_EPOCH": 87443, "BSTAR": 0.00060190485, "MEAN_MOTION_DOT": 2.143e-05, "MEAN_MOTION_DDOT": 0}, "tle": {"line1": "1 34962U 93036AER 25337.38552730  .00002143  00000+0  60190-3 0  9996", "line2": "2 34962  74.0295 210.8361 0018556 325.0213  34.9725 14.46471290874439"}}, "geometry": {"type": "Point", "coordinates": [29.03364421909125, 0.20671660637453604]}}, {"type": "Feature", "properties": {"norad_id": 34963, "name": "COSMOS 2251 DEB", "group": "cosmos-2251-debris", "lat": -54.97601039488003, "lon": 34.57573573163683, "alt_km": 707.9846725912621, "timestamp": "2025-12-04T07:39:36.527282+00:00", "meta": {"OBJECT_NAME": "COSMOS 2251 DEB", "OBJECT_ID": "1993-036AES", "EPOCH": "2025-12-03T12:04:13.425888", "MEAN_MOTION": 14.50919507, "ECCENTRICITY": 0.00426303, "INCLINATION": 74.172, "RA_OF_ASC_NODE": 59.975, "ARG_OF_PERICENTER": 258.0433, "MEAN_ANOMALY": 101.5948, "EPHEMERIS_TYPE": 0, "CLASSIFICATION_TYPE": "U", "NORAD_CAT_ID": 34963, "ELEMENT_SET_NO": 999, "REV_AT_EPOCH": 86667, "BSTAR": 0.0019734097, "MEAN_MOTION_DOT": 7.865e-05, "MEAN_MOTION_DDOT": 0}, "tle": {"line1": "1 34963U 93036AES 25337.50293317  .00007865  00000+0  19734-2 0  9997", "line2": "2 34963  74.1720  59.9750 0042630 258.0433 101.5948 14.50919507866675"}}, "geometry": {"type": "Point", "coordinates": [34.57573573163683, -54.97601039488003]}}, {"type": "Feature", "properties": {"norad_id": 34964, "name": "COSMOS 2251 DEB", "group": "cosmos-2251-debris", "lat": 45.090618135684515, "lon": 19.256394951165674, "alt_km": 1042.088918186415, "timestamp": "2025-12-04T07:39:36.527291+00:00", "meta": {"OBJECT_NAME": "COSMOS 2251 DEB", "OBJECT_ID": "1993-036AET", "EPOCH": "2025-12-01T10:51:07.970112", "MEAN_MOTION": 14.00515212, "ECCENTRICITY": 0.02132053, "INCLINATION": 73.9732, "RA_OF_ASC_NODE": 7.4842, "ARG_OF_PERICENTER": 228.1536, "MEAN_ANOMALY": 130.1229, "EPHEMERIS_TYPE": 0, "CLASSIFICATION_TYPE": "U", "NORAD_CAT_ID": 34964, "ELEMENT_SET_NO": 999, "REV_AT_EPOCH": 84320, "BSTAR": 0.0017784594, "MEAN_MOTION_DOT": 3.191e-05, "MEAN_MOTION_DDOT": 0}, "tle": {"line1": "1 34964U 93036AET 25335.45217558  .00003191  00000+0  17785-2 0  9995", "line2": "2 34964  73.9732   7.4842 0213205 228.1536 130.1229 14.00515212843200"}}, "geometry": {"type": "Point", "coordinates": [19.256394951165674, 45.090618135684515]}}, {"type": "Feature", "properties": {"norad_id": 34965, "name": "COSMOS 2251 DEB", "group": "cosmos-2251-debris", "lat": 70.90683084014113, "lon": -91.47928153423831, "alt_km": 741.4577452317781, "timestamp": "2025-12-04T07:39:36.527301+00:00", "meta": {"OBJECT_NAME": "COSMOS 2251 DEB", "OBJECT_ID": "1993-036AEU", "EPOCH": "2025-12-03T17:56:13.193952", "MEAN_MOTION": 14.48667662, "ECCENTRICITY": 0.00265132, "INCLINATION": 74.0501, "RA_OF_ASC_NODE": 145.3009, "ARG_OF_PERICENTER": 273.8401, "MEAN_ANOMALY": 85.9727, "EPHEMERIS_TYPE": 0, "CLASSIFICATION_TYPE": "U", "NORAD_CAT_ID": 34965, "ELEMENT_SET_NO": 999, "REV_AT_EPOCH": 86983, "BSTAR": 0.00048063509, "MEAN_MOTION_DOT": 1.791e-05, "MEAN_MOTION_DDOT": 0}, "tle": {"line1": "1 34965U 93036AEU 25337.74737493  .00001791  00000+0  48064-3 0  9994", "line2": "2 34965  74.0501 145.3009 0026513 273.8401  85.9727 14.48667662869832"}}, "geometry": {"type": "Point", "coordinates": [-91.47928153423831, 70.90683084014113]}}, {"type": "Feature", "properties": {"norad_id": 34967, "name": "COSMOS 2251 DEB", "group": "cosmos-2251-debris", "lat": 31.844337390858687, "lon": 79.29777943459676, "alt_km": 741.7258306700405, "timestamp": "2025-12-04T07:39:36.527310+00:00", "meta": {"OBJECT_NAME": "COSMOS 2251 DEB", "OBJECT_ID": "1993-036AEW", "EPOCH": "2025-12-01T02:30:41.683104", "MEAN_MOTION": 14.44168549, "ECCENTRICITY": 0.00374829, "INCLINATION": 73.9933, "RA_OF_ASC_NODE": 275.5612, "ARG_OF_PERICENTER": 64.8384, "MEAN_ANOMALY": 295.6653, "EPHEMERIS_TYPE": 0, "CLASSIFICATION_TYPE": "U", "NORAD_CAT_ID": 34967, "ELEMENT_SET_NO": 999, "REV_AT_EPOCH": 64789, "BSTAR": 0.00079995093, "MEAN_MOTION_DOT": 2.741e-05, "MEAN_MOTION_DDOT": 0}, "tle": {"line1": "1 34967U 93036AEW 25335.10464911  .00002741  00000+0  79995-3 0  9999", "line2": "2 34967  73.9933 275.5612 0037482  64.8384 295.6653 14.44168549647896"}}, "geometry": {"type": "Point", "coordinates": [79.29777943459676, 31.844337390858687]}}, {"type": "Feature", "properties": {"norad_id": 34968, "name": "COSMOS 2251 DEB", "group": "cosmos-2251-debris", "lat": -72.12378739019304, "lon": 145.6623498082882, "alt_km": 735.7605179003986, "timestamp": "2025-12-04T07:39:36.527339+00:00", "meta": {"OBJECT_NAME": "COSMOS 2251 DEB", "OBJECT_ID": "1993-036AEX", "EPOCH": "2025-12-02T01:48:56.339712", "MEAN_MOTION": 14.59372646, "ECCENTRICITY": 0.00862303, "INCLINATION": 74.039, "RA_OF_ASC_NODE": 267.3956, "ARG_OF_PERICENTER": 30.5548, "MEAN_ANOMALY": 330.0599, "EPHEMERIS_TYPE": 0, "CLASSIFICATION_TYPE": "U", "NORAD_CAT_ID": 34968, "ELEMENT_SET_NO": 999, "REV_AT_EPOCH": 88322, "BSTAR": 0.00022982614, "MEAN_MOTION_DOT": 1.114e-05, "MEAN_MOTION_DDOT": 0}, "tle": {"line1": "1 34968U 93036AEX 25336.07565208  .00001114  00000+0  22983-3 0  9996", "line2": "2 34968  74.0390 267.3956 0086230  30.5548 330.0599 14.59372646883226"}}, "geometry": {"type": "Point", "coordinates": [145.6623498082882, -72.12378739019304]}}, {"type": "Feature", "properties": {"norad_id": 34969, "name": "COSMOS 2251 DEB", "group": "cosmos-2251-debris", "lat": 73.3688245297138, "lon": 144.8663840451499, "alt_km": 766.4473621309007, "timestamp": "2025-12-04T07:39:36.527348+00:00", "meta": {"OBJECT_NAME": "COSMOS 2251 DEB", "OBJECT_ID": "1993-036AEY", "EPOCH": "2025-11-27T22:39:52.818912", "MEAN_MOTION": 14.32217313, "ECCENTRICITY": 0.0074445, "INCLINATION": 74.0147, "RA_OF_ASC_NODE": 50.1773, "ARG_OF_PERICENTER": 186.867, "MEAN_ANOMALY": 173.1469, "EPHEMERIS_TYPE": 0, "CLASSIFICATION_TYPE": "U", "NORAD_CAT_ID": 34969, "ELEMENT_SET_NO": 999, "REV_AT_EPOCH": 64925, "BSTAR": 0.00041332, "MEAN_MOTION_DOT": 1.123e-05, "MEAN_MOTION_DDOT": 0}, "tle": {"line1": "1 34969U 93036AEY 25331.94436133  .00001123  00000+0  41332-3 0  9991", "line2": "2 34969  74.0147  50.1773 0074445 186.8670 173.1469 14.32217313649253"}}, "geometry": {"type": "Point", "coordinates": [144.8663840451499, 73.3688245297138]}}, {"type": "Feature", "properties": {"norad_id": 34971, "name": "COSMOS 2251 DEB", "group": "cosmos-2251-debris", "lat": 70.19984444175446, "lon": -6.0236170954609465, "alt_km": 700.4373668922344, "timestamp": "2025-12-04T07:39:36.527358+00:00", "meta": {"OBJECT_NAME": "COSMOS 2251 DEB", "OBJECT_ID": "1993-036AFA", "EPOCH": "2025-12-02T16:30:25.799904", "MEAN_MOTION": 14.55607383, "ECCENTRICITY": 0.00700454, "INCLINATION": 73.9781, "RA_OF_ASC_NODE": 304.1252, "ARG_OF_PERICENTER": 172.3725, "MEAN_ANOMALY": 1.4468, "EPHEMERIS_TYPE": 0, "CLASSIFICATION_TYPE": "U", "NORAD_CAT_ID": 34971, "ELEMENT_SET_NO": 999, "REV_AT_EPOCH": 66026, "BSTAR": 0.00022954262, "MEAN_MOTION_DOT": 1.004e-05, "MEAN_MOTION_DDOT": 0}, "tle": {"line1": "1 34971U 93036AFA 25336.68779861  .00001004  00000+0  22954-3 0  9995", "line2": "2 34971  73.9781 304.1252 0070045 172.3725   1.4468 14.55607383660266"}}, "geometry": {"type": "Point", "coordinates": [-6.0236170954609465, 70.19984444175446]}}]}